ONEWEB-0063             
1 45448U 20020AA  23254.61359341  .00000074  00000+0  17342-3 0  9997
2 45448  87.8931 221.5942 0001764  84.5605 275.5724 13.11413994170370
ONEWEB-0019             
1 45449U 20020AB  23254.43557668  .00000634  00000+0  17521-2 0  9990
2 45449  87.8929 221.6300 0002109  75.7652 284.3710 13.11419911170193
ONEWEB-0094             
1 45450U 20020AC  23254.58131885 -.00000005  00000+0 -46845-4 0  9994
2 45450  87.9162 206.5081 0002036  81.7366 278.3997 13.17649893173352
ONEWEB-0087             
1 45451U 20020AD  23254.46947029 -.00000404  00000+0 -11760-2 0  9996
2 45451  87.8929 221.6130 0002067  92.7857 267.3508 13.11413970170247
ONEWEB-0082             
1 45452U 20020AE  23254.47158673 -.00000392  00000+0 -11417-2 0  9992
2 45452  87.8936 221.5981 0002154  83.2665 276.8708 13.11414105170336
ONEWEB-0050             
1 45453U 20020AF  23254.59788017  .00003552  00000+0  28906-3 0  9998
2 45453  87.9971  99.6394 0025128   7.3314 352.8282 14.99023834189854
ONEWEB-0034             
1 45454U 20020AG  23254.41438718 -.00000182  00000+0 -54922-3 0  9995
2 45454  87.8938 221.6280 0002046  85.4266 274.7096 13.11418820170249
ONEWEB-0060             
1 45455U 20020AH  23254.42178460  .00000167  00000+0  43653-3 0  9992
2 45455  87.8930 221.6275 0002012  85.3632 274.7725 13.11414139170209
